STARLINK-31446          
1 59315U 24056V   26068.46796232 -.00002408  00000+0 -77996-4 0  9998
2 59315  43.0026 231.6832 0000804 272.0223  88.0536 15.27588134111125
YAOGAN-43 01G           
1 60464U 24148G   26068.44348481  .00010133  00000+0  35873-3 0  9993
2 60464  35.0006  62.0013 0007382 306.3543  53.6492 15.28332833 87004
